{
  "norad_id": 33408,
  "name": "SHIJIAN-6 03A (SJ-6 03A)",
  "history": [
    {
      "epoch": "2026-03-28T21:26:03.856416Z",
      "apogee_km": 523.8696945795746,
      "perigee_km": 510.08016023595155,
      "latitude_deg": 9.896441027929632e-05,
      "longitude_deg": -29.38559761054683,
      "height_km": 517.5473483742079,
      "semi_major_axis_km": 6895.111927407763,
      "eccentricity": 0.00099995,
      "inclination_deg": 97.851,
      "raan_deg": 118.4375,
      "arg_perigee_deg": 291.3228,
      "mean_anomaly_deg": 68.6937,
      "mean_motion_rev_day": 15.16319714
    },
    {
      "epoch": "2026-03-29T03:46:10.084224Z",
      "apogee_km": 523.8699903223051,
      "perigee_km": 510.0370597110168,
      "latitude_deg": 1.6612950876523053e-06,
      "longitude_deg": -124.39810523321044,
      "height_km": 517.6399557659688,
      "semi_major_axis_km": 6895.090525016661,
      "eccentricity": 0.0010031,
      "inclination_deg": 97.8509,
      "raan_deg": 118.7111,
      "arg_perigee_deg": 290.2432,
      "mean_anomaly_deg": 69.7721,
      "mean_motion_rev_day": 15.16326774
    }
  ]
}